{
    "links": {
        "self": "http://www.neowsapp.com/rest/v1/neo/3752774?api_key=iIulBulltgU6a56xZRHN4H3l9WmuAYTsLGpBGhQ2"
    },
    "id": "3752774",
    "neo_reference_id": "3752774",
    "name": "(2016 JT5)",
    "designation": "2016 JT5",
    "nasa_jpl_url": "http://ssd.jpl.nasa.gov/sbdb.cgi?sstr=3752774",
    "absolute_magnitude_h": 24.9,
    "estimated_diameter": {
        "kilometers": {
            "estimated_diameter_min": 0.0278326768,
            "estimated_diameter_max": 0.0622357573
        },
        "meters": {
            "estimated_diameter_min": 27.8326768072,
            "estimated_diameter_max": 62.2357573367
        },
        "miles": {
            "estimated_diameter_min": 0.0172944182,
            "estimated_diameter_max": 0.0386714948
        },
        "feet": {
            "estimated_diameter_min": 91.3145593761,
            "estimated_diameter_max": 204.1855621004
        }
    },
    "is_potentially_hazardous_asteroid": false,
    "close_approach_data": [
        {
            "close_approach_date": "2015-10-30",
            "close_approach_date_full": "2015-Oct-30 17:15",
            "epoch_date_close_approach": 1446225300000,
            "relative_velocity": {
                "kilometers_per_second": "9.6128673199",
                "kilometers_per_hour": "34606.3223517566",
                "miles_per_hour": "21503.0229079567"
            },
            "miss_distance": {
                "astronomical": "0.3370838685",
                "lunar": "131.1256248465",
                "kilometers": "50427028.738960095",
                "miles": "31333902.686015511"
            },
            "orbiting_body": "Earth"
        },
        {
            "close_approach_date": "2016-04-24",
            "close_approach_date_full": "2016-Apr-24 23:03",
            "epoch_date_close_approach": 1461538980000,
            "relative_velocity": {
                "kilometers_per_second": "11.0123270715",
                "kilometers_per_hour": "39644.3774573924",
                "miles_per_hour": "24633.4744262337"
            },
            "miss_distance": {
                "astronomical": "0.0971361229",
                "lunar": "37.7859518081",
                "kilometers": "14531357.085898223",
                "miles": "9029366.5958845574"
            },
            "orbiting_body": "Earth"
        }
    ],
    "orbital_data": {
        "orbit_id": "5",
        "orbit_determination_date": "2017-04-06 08:26:10",
        "first_observation_date": "2016-05-03",
        "last_observation_date": "2016-05-08",
        "data_arc_in_days": 5,
        "observations_used": 16,
        "orbit_uncertainty": "8",
        "minimum_orbit_intersection": ".0687154",
        "jupiter_tisserand_invariant": "5.315",
        "epoch_osculation": "2457513.5",
        "eccentricity": ".244048616497906",
        "semi_major_axis": "1.171174867373552",
        "inclination": "18.67970176688054",
        "ascending_node_longitude": "224.1611192017879",
        "orbital_period": "462.946753730175",
        "perihelion_distance": ".8853512613139182",
        "perihelion_argument": "264.7691424950397",
        "aphelion_distance": "1.456998473433186",
        "perihelion_time": "2457426.984743361824",
        "mean_anomaly": "67.27661904698498",
        "mean_motion": ".7776272262399819",
        "equinox": "J2000",
        "orbit_class": {
            "orbit_class_type": "APO",
            "orbit_class_description": "Near-Earth asteroid orbits which cross the Earth’s orbit similar to that of 1862 Apollo",
            "orbit_class_range": "a (semi-major axis) > 1.0 AU; q (perihelion) < 1.017 AU"
        }
    },
    "is_sentry_object": false
}